{"type": "FeatureCollection", "features": [ {"type": "Feature", "properties": {"norad_id": 44542, "name": "BEIDOU-3 M24 (C46)", "group": "gnss", "lat": 39.60643790574667, "lon": -27.644490214796978, "alt_km": 21529.163559938923, "timestamp": "2025-12-21T03:56:51.083317+00:00", "meta": {"OBJECT_NAME": "BEIDOU-3 M24 (C46)", "OBJECT_ID": "2019-061A", "EPOCH": "2025-12-20T10:28:25.457664", "MEAN_MOTION": 1.86229474, "ECCENTRICITY": 0.0009602, "INCLINATION": 54.4004, "RA_OF_ASC_NODE": 188.7562, "ARG_OF_PERICENTER": 25.7193, "MEAN_ANOMALY": 334.3849, "EPHEMERIS_TYPE": 0, "CLASSIFICATION_TYPE": "U", "NORAD_CAT_ID": 44542, "ELEMENT_SET_NO": 999, "REV_AT_EPOCH": 4246, "BSTAR": 0, "MEAN_MOTION_DOT": 9.8e-07, "MEAN_MOTION_DDOT": 0}, "tle": {"line1": "1 44542U 19061A   25354.43640576  .00000098  00000+0  00000+0 0  9995", "line2": "2 44542  54.4004 188.7562 0009602  25.7193 334.3849  1.86229474 42462"}}, "geometry": {"type": "Point", "coordinates": [-27.644490214796978, 39.60643790574667]}}, {"type": "Feature", "properties": {"norad_id": 44543, "name": "BEIDOU-3 M23 (C45)", "group": "gnss", "lat": 32.16664827809677, "lon": -144.49614091530597, "alt_km": 21508.1043250237, "timestamp": "2025-12-21T03:56:51.083327+00:00", "meta": {"OBJECT_NAME": "BEIDOU-3 M23 (C45)", "OBJECT_ID": "2019-061B", "EPOCH": "2025-12-20T19:59:50.639136", "MEAN_MOTION": 1.86227682, "ECCENTRICITY": 0.0006074, "INCLINATION": 54.3995, "RA_OF_ASC_NODE": 188.7112, "ARG_OF_PERICENTER": 25.3362, "MEAN_ANOMALY": 153.5268, "EPHEMERIS_TYPE": 0, "CLASSIFICATION_TYPE": "U", "NORAD_CAT_ID": 44543, "ELEMENT_SET_NO": 999, "REV_AT_EPOCH": 4247, "BSTAR": 0, "MEAN_MOTION_DOT": 9.6e-07, "MEAN_MOTION_DDOT": 0}, "tle": {"line1": "1 44543U 19061B   25354.83322499  .00000096  00000+0  00000+0 0  9999", "line2": "2 44543  54.3995 188.7112 0006074  25.3362 153.5268  1.86227682 42472"}}, "geometry": {"type": "Point", "coordinates": [-144.49614091530597, 32.16664827809677]}}, {"type": "Feature", "properties": {"norad_id": 44624, "name": "EUTELSAT 5 WEST B (EGNOS/PRN 121)", "group": "gnss", "lat": 0.026381995786983574, "lon": 144.16856142074568, "alt_km": 35793.605489378824, "timestamp": "2025-12-21T03:56:51.083337+00:00", "meta": {"OBJECT_NAME": "EUTELSAT 5 WEST B (EGNOS/PRN 121)", "OBJECT_ID": "2019-067A", "EPOCH": "2025-12-20T18:20:30.152832", "MEAN_MOTION": 1.00271328, "ECCENTRICITY": 0.0002996, "INCLINATION": 0.067, "RA_OF_ASC_NODE": 335.5656, "ARG_OF_PERICENTER": 294.2858, "MEAN_ANOMALY": 89.8731, "EPHEMERIS_TYPE": 0, "CLASSIFICATION_TYPE": "U", "NORAD_CAT_ID": 44624, "ELEMENT_SET_NO": 999, "REV_AT_EPOCH": 2264, "BSTAR": 0, "MEAN_MOTION_DOT": -1.9e-07, "MEAN_MOTION_DDOT": 0}, "tle": {"line1": "1 44624U 19067A   25354.76423788 -.00000019  00000+0  00000+0 0  9996", "line2": "2 44624   0.0670 335.5656 0002996 294.2858  89.8731  1.00271328 22646"}}, "geometry": {"type": "Point", "coordinates": [144.16856142074568, 0.026381995786983574]}}, {"type": "Feature", "properties": {"norad_id": 44793, "name": "BEIDOU-3 M22 (C44)", "group": "gnss", "lat": -41.857834063041636, "lon": 166.4774294631348, "alt_km": 21547.219759141703, "timestamp": "2025-12-21T03:56:51.083347+00:00", "meta": {"OBJECT_NAME": "BEIDOU-3 M22 (C44)", "OBJECT_ID": "2019-078A", "EPOCH": "2025-12-19T04:51:35.344224", "MEAN_MOTION": 1.86232161, "ECCENTRICITY": 0.0006038, "INCLINATION": 54.1023, "RA_OF_ASC_NODE": 306.1592, "ARG_OF_PERICENTER": 24.3104, "MEAN_ANOMALY": 335.7082, "EPHEMERIS_TYPE": 0, "CLASSIFICATION_TYPE": "U", "NORAD_CAT_ID": 44793, "ELEMENT_SET_NO": 999, "REV_AT_EPOCH": 4129, "BSTAR": 0, "MEAN_MOTION_DOT": -7.7e-07, "MEAN_MOTION_DDOT": 0}, "tle": {"line1": "1 44793U 19078A   25353.20249241 -.00000077  00000+0  00000+0 0  9997", "line2": "2 44793  54.1023 306.1592 0006038  24.3104 335.7082  1.86232161 41295"}}, "geometry": {"type": "Point", "coordinates": [166.4774294631348, -41.857834063041636]}}, {"type": "Feature", "properties": {"norad_id": 44794, "name": "BEIDOU-3 M21 (C43)", "group": "gnss", "lat": 29.115098064790157, "lon": 102.24235855753629, "alt_km": 21532.35868403656, "timestamp": "2025-12-21T03:56:51.083358+00:00", "meta": {"OBJECT_NAME": "BEIDOU-3 M21 (C43)", "OBJECT_ID": "2019-078B", "EPOCH": "2025-12-16T15:43:55.727904", "MEAN_MOTION": 1.86227668, "ECCENTRICITY": 0.00041169, "INCLINATION": 54.078, "RA_OF_ASC_NODE": 306.2132, "ARG_OF_PERICENTER": 11.942, "MEAN_ANOMALY": 348.0544, "EPHEMERIS_TYPE": 0, "CLASSIFICATION_TYPE": "U", "NORAD_CAT_ID": 44794, "ELEMENT_SET_NO": 999, "REV_AT_EPOCH": 4125, "BSTAR": 0, "MEAN_MOTION_DOT": -9.5e-07, "MEAN_MOTION_DDOT": 0}, "tle": {"line1": "1 44794U 19078B   25350.65550611 -.00000095  00000+0  00000+0 0  9990", "line2": "2 44794  54.0780 306.2132 0004116  11.9420 348.0544  1.86227668 41256"}}, "geometry": {"type": "Point", "coordinates": [102.24235855753629, 29.115098064790157]}}, {"type": "Feature", "properties": {"norad_id": 44850, "name": "COSMOS 2544 (759)", "group": "gnss", "lat": -10.28665633463164, "lon": 74.94279511543179, "alt_km": 19137.11287544896, "timestamp": "2025-12-21T03:56:51.083370+00:00", "meta": {"OBJECT_NAME": "COSMOS 2544 (759)", "OBJECT_ID": "2019-088A", "EPOCH": "2025-12-20T17:02:22.284096", "MEAN_MOTION": 2.13102112, "ECCENTRICITY": 0.0014152, "INCLINATION": 65.4642, "RA_OF_ASC_NODE": 79.6917, "ARG_OF_PERICENTER": 250.1796, "MEAN_ANOMALY": 109.702, "EPHEMERIS_TYPE": 0, "CLASSIFICATION_TYPE": "U", "NORAD_CAT_ID": 44850, "ELEMENT_SET_NO": 999, "REV_AT_EPOCH": 4691, "BSTAR": 0, "MEAN_MOTION_DOT": -1.4e-07, "MEAN_MOTION_DDOT": 0}, "tle": {"line1": "1 44850U 19088A   25354.70998014 -.00000014  00000+0  00000+0 0  9998", "line2": "2 44850  65.4642  79.6917 0014152 250.1796 109.7020  2.13102112 46914"}}, "geometry": {"type": "Point", "coordinates": [74.94279511543179, -10.28665633463164]}}, {"type": "Feature", "properties": {"norad_id": 44864, "name": "BEIDOU-3 M19 (C41)", "group": "gnss", "lat": -17.407976620576992, "lon": 56.68765523826166, "alt_km": 21500.469307736006, "timestamp": "2025-12-21T03:56:51.083381+00:00", "meta": {"OBJECT_NAME": "BEIDOU-3 M19 (C41)", "OBJECT_ID": "2019-090A", "EPOCH": "2025-12-20T17:56:37.822272", "MEAN_MOTION": 1.86231652, "ECCENTRICITY": 0.0018286, "INCLINATION": 56.3995, "RA_OF_ASC_NODE": 68.6961, "ARG_OF_PERICENTER": 285.0297, "MEAN_ANOMALY": 134.3435, "EPHEMERIS_TYPE": 0, "CLASSIFICATION_TYPE": "U", "NORAD_CAT_ID": 44864, "ELEMENT_SET_NO": 999, "REV_AT_EPOCH": 4091, "BSTAR": 0, "MEAN_MOTION_DOT": -4e-07, "MEAN_MOTION_DDOT": 0}, "tle": {"line1": "1 44864U 19090A   25354.74765998 -.00000040  00000+0  00000+0 0  9992", "line2": "2 44864  56.3995  68.6961 0018286 285.0297 134.3435  1.86231652 40910"}}, "geometry": {"type": "Point", "coordinates": [56.68765523826166, -17.407976620576992]}}, {"type": "Feature", "properties": {"norad_id": 44865, "name": "BEIDOU-3 M20 (C42)", "group": "gnss", "lat": 50.84401366301246, "lon": 123.33918519220231, "alt_km": 21550.487206289126, "timestamp": "2025-12-21T03:56:51.083391+00:00", "meta": {"OBJECT_NAME": "BEIDOU-3 M20 (C42)", "OBJECT_ID": "2019-090B", "EPOCH": "2025-12-20T13:54:30.736224", "MEAN_MOTION": 1.86231557, "ECCENTRICITY": 0.00154748, "INCLINATION": 56.4009, "RA_OF_ASC_NODE": 68.736, "ARG_OF_PERICENTER": 297.1994, "MEAN_ANOMALY": 99.0588, "EPHEMERIS_TYPE": 0, "CLASSIFICATION_TYPE": "U", "NORAD_CAT_ID": 44865, "ELEMENT_SET_NO": 999, "REV_AT_EPOCH": 4089, "BSTAR": 0, "MEAN_MOTION_DOT": -4.2e-07, "MEAN_MOTION_DDOT": 0}, "tle": {"line1": "1 44865U 19090B   25354.57952241 -.00000042  00000+0  00000+0 0  9995", "line2": "2 44865  56.4009  68.7360 0015474 297.1994  99.0588  1.86231557 40893"}}, "geometry": {"type": "Point", "coordinates": [123.33918519220231, 50.84401366301246]}}, {"type": "Feature", "properties": {"norad_id": 45344, "name": "BEIDOU-3 G2 (C60)", "group": "gnss", "lat": -0.2470057039296031, "lon": -130.79474499863232, "alt_km": 35779.857520849015, "timestamp": "2025-12-21T03:56:51.083401+00:00", "meta": {"OBJECT_NAME": "BEIDOU-3 G2 (C60)", "OBJECT_ID": "2020-017A", "EPOCH": "2025-12-19T13:38:45.370752", "MEAN_MOTION": 1.00273166, "ECCENTRICITY": 0.0002079, "INCLINATION": 2.5096, "RA_OF_ASC_NODE": 44.0024, "ARG_OF_PERICENTER": 233.0917, "MEAN_ANOMALY": 96.0359, "EPHEMERIS_TYPE": 0, "CLASSIFICATION_TYPE": "U", "NORAD_CAT_ID": 45344, "ELEMENT_SET_NO": 999, "REV_AT_EPOCH": 2145, "BSTAR": 0, "MEAN_MOTION_DOT": -1.18e-06, "MEAN_MOTION_DDOT": 0}, "tle": {"line1": "1 45344U 20017A   25353.56858068 -.00000118  00000+0  00000+0 0  9993", "line2": "2 45344   2.5096  44.0024 0002079 233.0917  96.0359  1.00273166 21451"}}, "geometry": {"type": "Point", "coordinates": [-130.79474499863232, -0.2470057039296031]}}, {"type": "Feature", "properties": {"norad_id": 45358, "name": "COSMOS 2545 (760)", "group": "gnss", "lat": -16.50938978041839, "lon": 146.79653460487322, "alt_km": 19114.06399335627, "timestamp": "2025-12-21T03:56:51.083411+00:00", "meta": {"OBJECT_NAME": "COSMOS 2545 (760)", "OBJECT_ID": "2020-018A", "EPOCH": "2025-12-19T00:41:16.420128", "MEAN_MOTION": 2.13102611, "ECCENTRICITY": 0.0011548, "INCLINATION": 64.4657, "RA_OF_ASC_NODE": 318.7488, "ARG_OF_PERICENTER": 249.6698, "MEAN_ANOMALY": 110.1972, "EPHEMERIS_TYPE": 0, "CLASSIFICATION_TYPE": "U", "NORAD_CAT_ID": 45358, "ELEMENT_SET_NO": 999, "REV_AT_EPOCH": 4482, "BSTAR": 0, "MEAN_MOTION_DOT": -6.1e-07, "MEAN_MOTION_DDOT": 0}, "tle": {"line1": "1 45358U 20018A   25353.02866227 -.00000061  00000+0  00000+0 0  9993", "line2": "2 45358  64.4657 318.7488 0011548 249.6698 110.1972  2.13102611 44827"}}, "geometry": {"type": "Point", "coordinates": [146.79653460487322, -16.50938978041839]}}]}